{
  "type": "FeatureCollection",
  "features": [
    {
      "type": "Feature",
      "properties": {
        "norad_id": 66327,
        "name": "STARLINK-35507",
        "group": "last-30-days",
        "lat": -26.166414151162382,
        "lon": 10.934476709385065,
        "alt_km": 415.6436511814263,
        "timestamp": "2025-12-02T19:35:49.341345+00:00",
        "meta_object_name": "STARLINK-35507",
        "meta_object_id": "2025-253J",
        "meta_epoch": "2025-12-02T05:51:32.368032",
        "meta_mean_motion": 15.50777938,
        "meta_eccentricity": 0.0002596,
        "meta_inclination": 42.9999,
        "meta_ra_of_asc_node": 46.106,
        "meta_arg_of_pericenter": 253.7936,
        "meta_mean_anomaly": 106.2639,
        "meta_ephemeris_type": 0,
        "meta_classification_type": "U",
        "meta_norad_cat_id": 66327,
        "meta_element_set_no": 999,
        "meta_rev_at_epoch": 530,
        "meta_bstar": 0.002155,
        "meta_mean_motion_dot": 0.00129109,
        "meta_mean_motion_ddot": 0,
        "tle_line1": "1 66327U 25253J   25336.24412463  .00129109  00000+0  21550-2 0  9992",
        "tle_line2": "2 66327  42.9999  46.1060 0002596 253.7936 106.2639 15.50777938  5309"
      },
      "geometry": {
        "type": "Point",
        "coordinates": [
          10.934476709385065,
          -26.166414151162382
        ]
      }
    },
    {
      "type": "Feature",
      "properties": {
        "norad_id": 66328,
        "name": "STARLINK-35460",
        "group": "last-30-days",
        "lat": -15.451440814407192,
        "lon": 25.453444343472896,
        "alt_km": 414.8225135865696,
        "timestamp": "2025-12-02T19:35:49.341356+00:00",
        "meta_object_name": "STARLINK-35460",
        "meta_object_id": "2025-253K",
        "meta_epoch": "2025-12-01T14:19:31.564704",
        "meta_mean_motion": 15.50606087,
        "meta_eccentricity": 0.00018266,
        "meta_inclination": 43.0003,
        "meta_ra_of_asc_node": 49.8457,
        "meta_arg_of_pericenter": 291.64,
        "meta_mean_anomaly": 68.4265,
        "meta_ephemeris_type": 0,
        "meta_classification_type": "U",
        "meta_norad_cat_id": 66328,
        "meta_element_set_no": 999,
        "meta_rev_at_epoch": 520,
        "meta_bstar": 0.0016742687,
        "meta_mean_motion_dot": 0.0009923,
        "meta_mean_motion_ddot": 0,
        "tle_line1": "1 66328U 25253K   25335.59689311  .00099230  00000+0  16743-2 0  9997",
        "tle_line2": "2 66328  43.0003  49.8457 0001826 291.6400  68.4265 15.50606087  5209"
      },
      "geometry": {
        "type": "Point",
        "coordinates": [
          25.453444343472896,
          -15.451440814407192
        ]
      }
    },
    {
      "type": "Feature",
      "properties": {
        "norad_id": 66329,
        "name": "STARLINK-35505",
        "group": "last-30-days",
        "lat": -27.97881955689123,
        "lon": 8.008245958001092,
        "alt_km": 416.9132859861629,
        "timestamp": "2025-12-02T19:35:49.341368+00:00",
        "meta_object_name": "STARLINK-35505",
        "meta_object_id": "2025-253L",
        "meta_epoch": "2025-12-02T05:52:02.295264",
        "meta_mean_motion": 15.50171072,
        "meta_eccentricity": 0.000215,
        "meta_inclination": 43.0001,
        "meta_ra_of_asc_node": 46.1098,
        "meta_arg_of_pericenter": 329.5242,
        "meta_mean_anomaly": 30.5492,
        "meta_ephemeris_type": 0,
        "meta_classification_type": "U",
        "meta_norad_cat_id": 66329,
        "meta_element_set_no": 999,
        "meta_rev_at_epoch": 530,
        "meta_bstar": 0.0025402,
        "meta_mean_motion_dot": 0.00149376,
        "meta_mean_motion_ddot": 0,
        "tle_line1": "1 66329U 25253L   25336.24447101  .00149376  00000+0  25402-2 0  9999",
        "tle_line2": "2 66329  43.0001  46.1098 0002150 329.5242  30.5492 15.50171072  5309"
      },
      "geometry": {
        "type": "Point",
        "coordinates": [
          8.008245958001092,
          -27.97881955689123
        ]
      }
    },
    {
      "type": "Feature",
      "properties": {
        "norad_id": 66330,
        "name": "STARLINK-35512",
        "group": "last-30-days",
        "lat": -41.8359879499182,
        "lon": -63.20920659646227,
        "alt_km": 446.2949590484932,
        "timestamp": "2025-12-02T19:35:49.341379+00:00",
        "meta_object_name": "STARLINK-35512",
        "meta_object_id": "2025-253M",
        "meta_epoch": "2025-12-02T12:00:05.998752",
        "meta_mean_motion": 15.40674706,
        "meta_eccentricity": 0.0001962,
        "meta_inclination": 43.0002,
        "meta_ra_of_asc_node": 44.7322,
        "meta_arg_of_pericenter": 295.6394,
        "meta_mean_anomaly": 5.0102,
        "meta_ephemeris_type": 0,
        "meta_classification_type": "U",
        "meta_norad_cat_id": 66330,
        "meta_element_set_no": 999,
        "meta_rev_at_epoch": 528,
        "meta_bstar": 0.0015433,
        "meta_mean_motion_dot": 0.00064658,
        "meta_mean_motion_ddot": 0,
        "tle_line1": "1 66330U 25253M   25336.50006943  .00064658  00000+0  15433-2 0  9997",
        "tle_line2": "2 66330  43.0002  44.7322 0001962 295.6394   5.0102 15.40674706  5280"
      },
      "geometry": {
        "type": "Point",
        "coordinates": [
          -63.20920659646227,
          -41.8359879499182
        ]
      }
    },
    {
      "type": "Feature",
      "properties": {
        "norad_id": 66331,
        "name": "STARLINK-35257",
        "group": "last-30-days",
        "lat": -11.94100021124463,
        "lon": 29.581451298804854,
        "alt_km": 415.46237406764067,
        "timestamp": "2025-12-02T19:35:49.341390+00:00",
        "meta_object_name": "STARLINK-35257",
        "meta_object_id": "2025-253N",
        "meta_epoch": "2025-12-02T05:45:36.979776",
        "meta_mean_motion": 15.5063759,
        "meta_eccentricity": 0.0001229,
        "meta_inclination": 42.9998,
        "meta_ra_of_asc_node": 46.0726,
        "meta_arg_of_pericenter": 269.4284,
        "meta_mean_anomaly": 90.6435,
        "meta_ephemeris_type": 0,
        "meta_classification_type": "U",
        "meta_norad_cat_id": 66331,
        "meta_element_set_no": 999,
        "meta_rev_at_epoch": 530,
        "meta_bstar": 0.0014445,
        "meta_mean_motion_dot": 0.00085511,
        "meta_mean_motion_ddot": 0,
        "tle_line1": "1 66331U 25253N   25336.24001134  .00085511  00000+0  14445-2 0  9999",
        "tle_line2": "2 66331  42.9998  46.0726 0001229 269.4284  90.6435 15.50637590  5302"
      },
      "geometry": {
        "type": "Point",
        "coordinates": [
          29.581451298804854,
          -11.94100021124463
        ]
      }
    },
    {
      "type": "Feature",
      "properties": {
        "norad_id": 66332,
        "name": "STARLINK-35322",
        "group": "last-30-days",
        "lat": -18.103349901504355,
        "lon": 22.184176252169113,
        "alt_km": 415.7908072336877,
        "timestamp": "2025-12-02T19:35:49.341400+00:00",
        "meta_object_name": "STARLINK-35322",
        "meta_object_id": "2025-253P",
        "meta_epoch": "2025-12-02T05:48:04.239936",
        "meta_mean_motion": 15.50671276,
        "meta_eccentricity": 9.86e-05,
        "meta_inclination": 43.0002,
        "meta_ra_of_asc_node": 46.0856,
        "meta_arg_of_pericenter": 282.8379,
        "meta_mean_anomaly": 77.2371,
        "meta_ephemeris_type": 0,
        "meta_classification_type": "U",
        "meta_norad_cat_id": 66332,
        "meta_element_set_no": 999,
        "meta_rev_at_epoch": 530,
        "meta_bstar": 0.001523,
        "meta_mean_motion_dot": 0.00090339,
        "meta_mean_motion_ddot": 0,
        "tle_line1": "1 66332U 25253P   25336.24171574  .00090339  00000+0  15230-2 0  9993",
        "tle_line2": "2 66332  43.0002  46.0856 0000986 282.8379  77.2371 15.50671276  5307"
      },
      "geometry": {
        "type": "Point",
        "coordinates": [
          22.184176252169113,
          -18.103349901504355
        ]
      }
    },
    {
      "type": "Feature",
      "properties": {
        "norad_id": 66333,
        "name": "STARLINK-35400",
        "group": "last-30-days",
        "lat": -13.215031292083033,
        "lon": 28.106176745684827,
        "alt_km": 415.6160033858705,
        "timestamp": "2025-12-02T19:35:49.341411+00:00",
        "meta_object_name": "STARLINK-35400",
        "meta_object_id": "2025-253Q",
        "meta_epoch": "2025-12-02T05:46:06.661632",
        "meta_mean_motion": 15.50632789,
        "meta_eccentricity": 0.0001606,
        "meta_inclination": 43.0007,
        "meta_ra_of_asc_node": 46.0732,
        "meta_arg_of_pericenter": 261.218,
        "meta_mean_anomaly": 98.8498,
        "meta_ephemeris_type": 0,
        "meta_classification_type": "U",
        "meta_norad_cat_id": 66333,
        "meta_element_set_no": 999,
        "meta_rev_at_epoch": 530,
        "meta_bstar": 0.0015089,
        "meta_mean_motion_dot": 0.00089367,
        "meta_mean_motion_ddot": 0,
        "tle_line1": "1 66333U 25253Q   25336.24035488  .00089367  00000+0  15089-2 0  9998",
        "tle_line2": "2 66333  43.0007  46.0732 0001606 261.2180  98.8498 15.50632789  5302"
      },
      "geometry": {
        "type": "Point",
        "coordinates": [
          28.106176745684827,
          -13.215031292083033
        ]
      }
    }
  ]
}